{
  "norad_id": 51874,
  "name": "STARLINK-3574",
  "history": [
    {
      "epoch": "2026-03-28T19:41:18.056832",
      "apogee_km": 540.6353975658922,
      "perigee_km": 538.8449126006135,
      "latitude_deg": -48.537093192480995,
      "longitude_deg": 166.15339648001827,
      "semi_major_axis_km": 6917.877155083253,
      "eccentricity": 0.00012941,
      "inclination_deg": 53.2166,
      "raan_deg": 283.2411,
      "arg_perigee_deg": 94.1508,
      "mean_anomaly_deg": 265.9632,
      "mean_motion_rev_day": 15.08841058
    },
    {
      "epoch": "2026-03-28T22:52:04.238112",
      "apogee_km": 540.6388147413654,
      "perigee_km": 538.8277163058501,
      "latitude_deg": 43.939097861475965,
      "longitude_deg": 178.8713756799698,
      "semi_major_axis_km": 6917.8702655236075,
      "eccentricity": 0.0001309,
      "inclination_deg": 53.2171,
      "raan_deg": 282.6459,
      "arg_perigee_deg": 95.5211,
      "mean_anomaly_deg": 264.5931,
      "mean_motion_rev_day": 15.08843312
    }
  ]
}